[{"OBJECT_NAME":"GEESAT-5 02","OBJECT_ID":"2025-201B","EPOCH":"2026-03-09T15:59:08.333088","MEAN_MOTION":14.83780369,"ECCENTRICITY":0.00086476,"INCLINATION":49.9848,"RA_OF_ASC_NODE":140.989,"ARG_OF_PERICENTER":301.1325,"MEAN_ANOMALY":58.8764,"EPHEMERIS_TYPE":0,"CLASSIFICATION_TYPE":"U","NORAD_CAT_ID":65551,"ELEMENT_SET_NO":999,"REV_AT_EPOCH":2701,"BSTAR":0.00035135822,"MEAN_MOTION_DOT":2.715e-5,"MEAN_MOTION_DDOT":0},{"OBJECT_NAME":"CZ-4B DEB","OBJECT_ID":"1999-057KZ","EPOCH":"2026-03-09T21:36:53.281152","MEAN_MOTION":14.74123923,"ECCENTRICITY":0.00540205,"INCLINATION":98.3286,"RA_OF_ASC_NODE":134.0458,"ARG_OF_PERICENTER":61.8877,"MEAN_ANOMALY":352.6446,"EPHEMERIS_TYPE":0,"CLASSIFICATION_TYPE":"U","NORAD_CAT_ID":26454,"ELEMENT_SET_NO":999,"REV_AT_EPOCH":35698,"BSTAR":0.00090390491,"MEAN_MOTION_DOT":6.047e-5,"MEAN_MOTION_DDOT":0}]
